ONEWEB-0427             
1 50499U 21132AG  24209.25399860  .00000094  00000+0  20526-3 0  9995
2 50499  87.9137 112.8040 0002123  82.4474 277.6899 13.18685867130686
ONEWEB-0429             
1 50500U 21132AH  24209.24136090  .00000042  00000+0  75037-4 0  9992
2 50500  87.9142 112.8149 0001925  71.7550 288.3791 13.18686349130653
ONEWEB-0430             
1 50501U 21132AJ  24209.23028282 -.00000044  00000+0 -14441-3 0  9990
2 50501  87.9139 112.8204 0001481  76.9406 283.1891 13.18685376130693
ONEWEB-0432             
1 50502U 21132AK  24209.26190313  .00000042  00000+0  74527-4 0  9997
2 50502  87.9138 112.8066 0001661  90.2910 269.8412 13.18686013130653
ONEWEB-0440             
1 50503U 21132AL  24209.24926035  .00000036  00000+0  58644-4 0  9999
2 50503  87.9142 112.7990 0002347  65.6822 294.4554 13.18685882130647
ONEWEB-0450             
1 50504U 21132AM  24209.24305960  .00000206  00000+0  49043-3 0  9999
2 50504  87.9141 112.8285 0001629  67.1877 292.9427 13.18684160130677
ONEWEB-0410             
1 51622U 22012A   24209.26114325  .00000043  00000+0  77734-4 0  9992
2 51622  87.9187 143.2303 0003391  97.0669 263.0848 13.17649689122849
ONEWEB-0411             
1 51623U 22012B   24209.27572393  .00000656  00000+0  18422-2 0  9994
2 51623  87.8965 173.4743 0001424  90.6517 269.4774 13.10373413118937
